[{"OBJECT_NAME":"CARTOSAT-2C","OBJECT_ID":"2016-040A","EPOCH":"2026-03-09T22:26:22.952832","MEAN_MOTION":15.19225576,"ECCENTRICITY":0.00104304,"INCLINATION":97.4605,"RA_OF_ASC_NODE":130.2157,"ARG_OF_PERICENTER":119.7256,"MEAN_ANOMALY":240.5018,"EPHEMERIS_TYPE":0,"CLASSIFICATION_TYPE":"U","NORAD_CAT_ID":41599,"ELEMENT_SET_NO":999,"REV_AT_EPOCH":53864,"BSTAR":0.0002054492,"MEAN_MOTION_DOT":4.264e-5,"MEAN_MOTION_DDOT":0},{"OBJECT_NAME":"STARLINK-1591","OBJECT_ID":"2020-055U","EPOCH":"2026-03-10T00:00:02.999808","MEAN_MOTION":15.18497861,"ECCENTRICITY":3.326e-5,"INCLINATION":53.1044,"RA_OF_ASC_NODE":124.8093,"ARG_OF_PERICENTER":103.7008,"MEAN_ANOMALY":218.0512,"EPHEMERIS_TYPE":0,"CLASSIFICATION_TYPE":"U","NORAD_CAT_ID":46045,"ELEMENT_SET_NO":999,"REV_AT_EPOCH":579,"BSTAR":0.0057904655,"MEAN_MOTION_DOT":0.00122649,"MEAN_MOTION_DDOT":0}]
